OBJECT_NAME,OBJECT_ID,EPOCH,MEAN_MOTION,ECCENTRICITY,INCLINATION,RA_OF_ASC_NODE,ARG_OF_PERICENTER,MEAN_ANOMALY,EPHEMERIS_TYPE,CLASSIFICATION_TYPE,NORAD_CAT_ID,ELEMENT_SET_NO,REV_AT_EPOCH,BSTAR,MEAN_MOTION_DOT,MEAN_MOTION_DDOT
PERSEUS-M1,2014-033AF,2026-06-15T19:57:56.932416,14.95627481,.00104103,97.9641,110.9414,306.5557,53.4704,0,U,40039,999,65043,.11048255E-3,.1167E-4,0
POLYITAN-1,2014-033AJ,2026-06-15T21:03:40.160160,15.33217894,.00085643,98.0939,193.0146,145.3516,214.8284,0,U,40042,999,65339,.49773226E-3,.15919E-3,0
TIGRISAT,2014-033AK,2026-06-15T23:17:31.392672,14.85158931,.0050627,97.7828,317.0096,79.1294,281.5613,0,U,40043,999,64544,.21959204E-3,.1868E-4,0
AEROCUBE 6A,2014-033AM,2026-06-15T10:05:34.950624,14.98093876,.00390644,97.7236,333.3875,24.0890,336.2149,0,U,40045,999,64635,.41491623E-3,.4928E-4,0
AEROCUBE 6B,2014-033AN,2026-06-15T10:11:24.819648,14.99555300,.00384545,97.7236,333.1780,15.4316,344.8070,0,U,40046,999,64649,.35004812E-3,.4308E-4,0
CANX-4,2014-034C,2026-06-15T22:27:49.173120,14.81262688,.00132572,98.3124,42.2032,20.9621,339.2132,0,U,40055,999,64434,.10811121E-3,.786E-5,0
CANX-5,2014-034D,2026-06-15T22:25:35.059584,14.81279917,.00132652,98.3126,42.2450,21.1529,339.0228,0,U,40056,999,63515,.10891446E-3,.793E-5,0
UKUBE-1,2014-037F,2026-06-15T23:28:41.471328,15.13537995,.00025738,98.4228,170.1231,133.9815,226.1626,0,U,40074,999,64837,.3910357E-3,.6932E-4,0
BRITE-PL2 (HEWELIUSZ),2014-049B,2026-06-15T21:36:27.515808,14.94589495,.00152392,97.9096,278.8904,112.2848,247.9990,0,U,40119,999,64125,.13704257E-3,.1426E-4,0
AEROCUBE 5C,2015-058B,2026-06-15T15:05:11.325120,14.91447915,.0130683,64.7679,267.4387,63.8761,297.5728,0,U,40965,999,36542,.1871662E-3,.203E-4,0
AEROCUBE 7,2015-058C,2026-06-15T13:30:02.202336,14.95717126,.0120418,64.7627,249.9052,62.3296,298.9978,0,U,40966,999,36571,.23154258E-3,.2808E-4,0
FOX-1A (AO-85),2015-058D,2026-06-15T17:49:35.014368,14.90963979,.01303689,64.7762,283.4725,57.1508,304.2075,0,U,40967,999,11335,.19289249E-3,.2067E-4,0
SINOD-D 1,2015-058E,2026-06-15T17:47:22.634880,14.95898445,.01189585,64.7759,263.4407,53.6478,307.5545,0,U,40968,999,11644,.22469976E-3,.2723E-4,0
SNAP-3 ALICE,2015-058G,2026-06-15T13:42:11.780352,15.59736104,.00286221,64.7500,109.5165,13.8355,346.3568,0,U,40970,999,11663,.12439784E-2,.103207E-2,0
LMRST-SAT,2015-058H,2026-06-15T18:21:18.148896,14.90584711,.01319987,64.7767,279.7390,59.1751,302.2272,0,U,40971,999,11334,.17946703E-3,.1898E-4,0
SNAP-3 EDDIE,2015-058J,2026-06-15T22:43:17.805504,15.61082760,.00280042,64.7427,98.9521,17.5845,342.6264,0,U,40972,999,11883,.12831224E-2,.11217E-2,0
PROPCUBE 3,2015-058K,2026-06-15T12:52:04.228320,14.94250037,.01239545,64.7688,257.6942,60.5643,300.7773,0,U,40973,999,11455,.21059098E-3,.2455E-4,0
BISONSAT,2015-058L,2026-06-15T09:13:13.923552,15.16153901,.00788805,64.7577,179.4739,48.0183,312.7625,0,U,40974,999,11534,.43227724E-3,.8868E-4,0
SNAP-3 JIMI,2015-058M,2026-06-15T12:35:57.487488,15.02286136,.01060672,64.7640,225.0320,56.0418,305.0725,0,U,40975,999,11397,.26263862E-3,.3739E-4,0
PROPCUBE 1 (FLORA),2015-058N,2026-06-15T17:14:31.249536,14.89216736,.01306722,64.7756,299.7878,61.4958,299.9240,0,U,40976,999,11604,.20034336E-3,.2053E-4,0
SINOD-D 3,2015-058P,2026-06-15T16:50:05.767296,14.94008490,.01191912,64.7737,280.4582,58.7153,302.5567,0,U,40977,999,11453,.23962739E-3,.2768E-4,0
HORYU-4,2016-012D,2026-06-15T10:27:05.146272,15.94546005,.00051492,30.9849,91.8834,261.3375,98.6703,0,U,41340,999,57053,.9799184E-3,.392649E-2,.54782598E-4
RAVAN,2016-067B,2026-06-15T22:47:12.790176,15.54576517,.00046088,97.9889,56.3789,35.6865,324.4694,0,U,41849,999,52750,.61298831E-3,.40519E-3,0
CELTEE 1,2016-067C,2026-06-15T13:27:48.840480,15.19669705,.00008504,98.0673,33.0173,123.6796,236.4518,0,U,41850,999,52563,.22224743E-3,.4664E-4,0
OPTICUBE 04,2016-067D,2026-06-15T19:40:33.858912,15.09653291,.00168325,98.0695,19.0322,119.8621,240.4282,0,U,41851,999,52496,.12043814E-3,.1872E-4,0
AEROCUBE 8D,2016-067E,2026-06-15T21:48:05.326272,15.24382742,.00046321,98.0681,36.9826,126.3791,233.7873,0,U,41852,999,52587,.2565714E-3,.6206E-4,0
AEROCUBE 8C,2016-067F,2026-06-15T14:31:49.661760,15.24627685,.00066662,98.0553,33.8864,73.3759,286.8208,0,U,41853,999,52582,.25256613E-3,.6155E-4,0
CORVUS BC2,2017-042X,2026-06-15T22:23:04.155936,15.06289068,.00142515,97.4059,328.3309,114.4663,245.8053,0,U,42846,999,48687,.25222566E-3,.3653E-4,0
CORVUS BC1,2017-042Y,2026-06-15T17:28:33.917376,15.06458268,.0013258,97.4094,328.9476,93.6301,266.6443,0,U,42847,999,48687,.23647744E-3,.3436E-4,0
MAKERSAT 0,2017-073D,2026-06-15T22:32:08.718720,15.32063984,.01051376,97.4626,49.4485,277.5028,81.4279,0,U,43016,999,46627,.40194966E-3,.14741E-3,0
