PERSEUS-M1              
1 40039U 14033AF  26166.83190894  .00001167  00000+0  11048-3 0  9991
2 40039  97.9641 110.9414 0010410 306.5557  53.4704 14.95627481650439
POLYITAN-1              
1 40042U 14033AJ  26166.87754815  .00015919  00000+0  49773-3 0  9994
2 40042  98.0939 193.0146 0008564 145.3516 214.8284 15.33217894653390
TIGRISAT                
1 40043U 14033AK  26166.97050223  .00001868  00000+0  21959-3 0  9992
2 40043  97.7828 317.0096 0050627  79.1294 281.5613 14.85158931645446
AEROCUBE 6A             
1 40045U 14033AM  26166.42054341  .00004928  00000+0  41492-3 0  9993
2 40045  97.7236 333.3875 0039064  24.0890 336.2149 14.98093876646353
AEROCUBE 6B             
1 40046U 14033AN  26166.42459282  .00004308  00000+0  35005-3 0  9992
2 40046  97.7236 333.1780 0038454  15.4316 344.8070 14.99555300646495
CANX-4                  
1 40055U 14034C   26166.93598580  .00000786  00000+0  10811-3 0  9998
2 40055  98.3124  42.2032 0013257  20.9621 339.2132 14.81262688644344
CANX-5                  
1 40056U 14034D   26166.93443356  .00000793  00000+0  10891-3 0  9995
2 40056  98.3126  42.2450 0013265  21.1529 339.0228 14.81279917635156
UKUBE-1                 
1 40074U 14037F   26166.97825777  .00006932  00000+0  39104-3 0  9992
2 40074  98.4228 170.1231 0002573 133.9815 226.1626 15.13537995648373
BRITE-PL2 (HEWELIUSZ)   
1 40119U 14049B   26166.90031847  .00001426  00000+0  13704-3 0  9996
2 40119  97.9096 278.8904 0015239 112.2848 247.9990 14.94589495641257
AEROCUBE 5C             
1 40965U 15058B   26166.62860330  .00002030  00000+0  18717-3 0  9993
2 40965  64.7679 267.4387 0130683  63.8761 297.5728 14.91447915365429
AEROCUBE 7              
1 40966U 15058C   26166.56252549  .00002808  00000+0  23154-3 0  9998
2 40966  64.7627 249.9052 0120418  62.3296 298.9978 14.95717126365711
FOX-1A (AO-85)          
1 40967U 15058D   26166.74276637  .00002067  00000+0  19289-3 0  9994
2 40967  64.7762 283.4725 0130368  57.1508 304.2075 14.90963979113359
SINOD-D 1               
1 40968U 15058E   26166.74123420  .00002723  00000+0  22470-3 0  9991
2 40968  64.7759 263.4407 0118958  53.6478 307.5545 14.95898445116440
SNAP-3 ALICE            
1 40970U 15058G   26166.57096968  .00103207  00000+0  12440-2 0  9995
2 40970  64.7500 109.5165 0028622  13.8355 346.3568 15.59736104116639
LMRST-SAT               
1 40971U 15058H   26166.76479339  .00001898  00000+0  17947-3 0  9995
2 40971  64.7767 279.7390 0131998  59.1751 302.2272 14.90584711113346
SNAP-3 EDDIE            
1 40972U 15058J   26166.94673386  .00112170  00000+0  12831-2 0  9996
2 40972  64.7427  98.9521 0028004  17.5845 342.6264 15.61082760118836
PROPCUBE 3              
1 40973U 15058K   26166.53616005  .00002455  00000+0  21059-3 0  9994
2 40973  64.7688 257.6942 0123954  60.5643 300.7773 14.94250037114555
BISONSAT                
1 40974U 15058L   26166.38418893  .00008868  00000+0  43228-3 0  9999
2 40974  64.7577 179.4739 0078880  48.0183 312.7625 15.16153901115349
SNAP-3 JIMI             
1 40975U 15058M   26166.52497092  .00003739  00000+0  26264-3 0  9997
2 40975  64.7640 225.0320 0106067  56.0418 305.0725 15.02286136113979
PROPCUBE 1 (FLORA)      
1 40976U 15058N   26166.71841724  .00002053  00000+0  20034-3 0  9991
2 40976  64.7756 299.7878 0130672  61.4958 299.9240 14.89216736116049
SINOD-D 3               
1 40977U 15058P   26166.70145564  .00002768  00000+0  23963-3 0  9997
2 40977  64.7737 280.4582 0119191  58.7153 302.5567 14.94008490114534
HORYU-4                 
1 41340U 16012D   26166.43547623  .00392649  54783-4  97992-3 0  9990
2 41340  30.9849  91.8834 0005149 261.3375  98.6703 15.94546005570538
RAVAN                   
1 41849U 16067B   26166.94945359  .00040519  00000+0  61299-3 0  9993
2 41849  97.9889  56.3789 0004608  35.6865 324.4694 15.54576517527504
CELTEE 1                
1 41850U 16067C   26166.56098195  .00004664  00000+0  22225-3 0  9997
2 41850  98.0673  33.0173 0000850 123.6796 236.4518 15.19669705525636
OPTICUBE 04             
1 41851U 16067D   26166.81983633  .00001872  00000+0  12044-3 0  9992
2 41851  98.0695  19.0322 0016832 119.8621 240.4282 15.09653291524962
AEROCUBE 8D             
1 41852U 16067E   26166.90839498  .00006206  00000+0  25657-3 0  9992
2 41852  98.0681  36.9826 0004632 126.3791 233.7873 15.24382742525870
AEROCUBE 8C             
1 41853U 16067F   26166.60543590  .00006155  00000+0  25257-3 0  9994
2 41853  98.0553  33.8864 0006666  73.3759 286.8208 15.24627685525825
CORVUS BC2              
1 42846U 17042X   26166.93268699  .00003653  00000+0  25223-3 0  9994
2 42846  97.4059 328.3309 0014251 114.4663 245.8053 15.06289068486871
CORVUS BC1              
1 42847U 17042Y   26166.72817034  .00003436  00000+0  23648-3 0  9993
2 42847  97.4094 328.9476 0013258  93.6301 266.6443 15.06458268486879
MAKERSAT 0              
1 43016U 17073D   26166.93898980  .00014741  00000+0  40195-3 0  9995
2 43016  97.4626  49.4485 0105137 277.5028  81.4279 15.32063984466279
